{"type":"FeatureCollection","features":[{"type":"Feature","properties":{"stroke":"#24f708","stroke-width":5,"stroke-opacity":1},"geometry":{"coordinates":[[-81.05265830894079,33.994936759376685],[-81.05258977948044,33.99483345588963],[-81.05252872596199,33.99474461479038],[-81.0524751483839,33.99469296294545],[-81.05240163496359,33.99465680663596],[-81.05230070975908,33.99460515473761],[-81.05216365083918,33.99454007330162],[-81.05203531385055,33.99444400061424],[-81.0517680141684,33.9942044037474],[-81.05169574673826,33.994150685487114],[-81.05163843118962,33.994092835014854],[-81.0515935755436,33.99400192705001],[-81.05158360762209,33.99392548164006],[-81.0515624257889,33.99383560654378],[-81.05152385932658,33.99378682160982],[-81.05145657585717,33.993743433573044],[-81.05135814263232,33.993703144662575],[-81.0513132869863,33.99366078963284],[-81.05123977356521,33.993608104079215],[-81.05117872004675,33.99354715408356],[-81.0511413403411,33.99350376592503],[-81.05110271464603,33.993455212482516],[-81.05106658093058,33.993425253962286],[-81.05102546325438,33.99342215480438],[-81.05099929746117,33.993424220909674],[-81.05096690171628,33.99341285732987],[-81.05093948993218,33.99339219627183],[-81.05092578404009,33.99336327078208],[-81.05091581611858,33.9933312461219],[-81.05087375777548,33.993283978317294],[-81.05084136203058,33.9932395569695],[-81.05082267217779,33.99315897865094],[-81.05080647430607,33.993101127502854],[-81.0507940144042,33.99305773911654],[-81.05078280049248,33.993013317649854],[-81.05078529247287,33.992964763927745],[-81.05077939026839,33.99291751467551],[-81.05074325655295,33.99286896089805],[-81.05069840090614,33.99283693605089],[-81.05063983936809,33.99282557239317],[-81.0505825238202,33.992816274853425],[-81.05053642218323,33.99278941528834],[-81.05049281252664,33.99276565489683],[-81.05046913871384,33.992723299400396],[-81.05043425098854,33.99267164632664],[-81.05040933118481,33.99261379484739],[-81.050410577175,33.99256524089631]],"type":"LineString"},"id":0},{"type":"Feature","properties":{"stroke":"#f20707","stroke-width":5,"stroke-opacity":1},"geometry":{"coordinates":[[-81.05186444863598,33.97535588204558],[-81.05184224657923,33.975296044072365],[-81.05182004452246,33.97525461775922],[-81.05174511258174,33.975190176786455],[-81.0516785064119,33.9751073240362],[-81.0515369683009,33.97504058148431],[-81.05133714979134,33.975079706434556],[-81.05051012318253,33.975337470365986],[-81.04956098526281,33.97561824804433],[-81.04885329470824,33.97593814935138],[-81.04832807416307,33.97617225130789],[-81.04818098553787,33.97625510302045],[-81.04818653605207,33.976324146052434],[-81.04820873810884,33.97638628473395],[-81.04825591747901,33.97644151907866],[-81.04827256902118,33.976496753388204],[-81.04826146799323,33.97655198766115],[-81.04820596285174,33.97660722189892],[-81.04814490719608,33.976662456100115],[-81.04807552576912,33.976696977458104],[-81.04802002062766,33.976715388842564],[-81.04795896497197,33.97671308741964],[-81.04788958354504,33.976673963221],[-81.04781187634678,33.97663944185369],[-81.04773139389145,33.97662793472817],[-81.0476592372074,33.97668777176399],[-81.04759540629466,33.97676371870969],[-81.04749827229718,33.97677752723811],[-81.04742056509895,33.97675221160095],[-81.04737749691013,33.976652014042244],[-81.04731089074069,33.97658757412934],[-81.04721098148568,33.97649551702587],[-81.04702781451871,33.97641956983989],[-81.04687240012265,33.976297593915774],[-81.04673641252586,33.976141096246295],[-81.04661430121453,33.97600991415449],[-81.04646998784644,33.97585111450992],[-81.04626739588434,33.975634780919364],[-81.0461536103443,33.97544606163504],[-81.04603427428962,33.9752849594758],[-81.04588163515069,33.97510544528143],[-81.04574009703968,33.974912121878205],[-81.04542926824716,33.974532378200735],[-81.045090689599,33.974233186497614],[-81.04489087108942,33.97401454465958],[-81.0445994690966,33.973713048150316],[-81.04442462790088,33.973545038181484],[-81.04429141556115,33.97347599289276],[-81.04415821131325,33.97328497282652],[-81.04397781960336,33.97306632855016],[-81.04370584441017,33.97271649653919],[-81.04370029389598,33.97232523534721],[-81.04343664447367,33.97229531530013],[-81.04333673521909,33.97224698289304],[-81.0431341414524,33.97196849563339],[-81.04304275624146,33.9718054161207],[-81.04294007172936,33.971623593018776],[-81.04292064493012,33.971506213342366],[-81.04282073567511,33.97142565856775],[-81.042498920176,33.97120994901451],[-81.04227134909593,33.97101201360067],[-81.04201880070197,33.97079796664613],[-81.04190636984951,33.97060799995184],[-81.0417759327669,33.97038934879228],[-81.04164827094137,33.9701706970705],[-81.04132763072423,33.9698386531587],[-81.04110058579501,33.96948896063819],[-81.04102181510551,33.96939289101259],[-81.04085964015576,33.969262236148],[-81.04060942737716,33.969077781879236],[-81.04041945100734,33.968858741915284],[-81.04018313893881,33.968559002103774],[-81.03982670419293,33.96808831847861],[-81.03969071659611,33.967890375799],[-81.03958803208447,33.967724655992214],[-81.03930437829224,33.96741673583709],[-81.0391739412096,33.967195774791975],[-81.03905460515539,33.96700473509253],[-81.03886866293126,33.966710118810454],[-81.03884275320756,33.96665486866536],[-81.03882055115082,33.966592722873045],[-81.03881500063665,33.96648684475147],[-81.03882887692212,33.9663648545783],[-81.03883442743629,33.966249769348906],[-81.03884830372179,33.96613238225447],[-81.0388816068065,33.96606102923583]],"type":"LineString"},"id":1},{"type":"Feature","properties":{"stroke":"#24f708","stroke-width":5,"stroke-opacity":1},"geometry":{"coordinates":[[-81.05041172601928,33.992564778119686],[-81.05037696725434,33.99248627157742],[-81.0503050525689,33.99238093357111],[-81.05023553503968,33.99227360792089],[-81.05016002461923,33.992184169775626],[-81.0501408473703,33.99212752556845],[-81.0501312587455,33.99208280643039],[-81.05007013126226,33.992043056066294],[-81.05003657107613,33.99198740552448],[-81.05003201617805,33.99192490426681],[-81.04998398866672,33.99185190017549],[-81.0499579737644,33.99180710217895],[-81.05000800242209,33.991737416360195],[-81.0500540287877,33.99170091424213],[-81.05002201044641,33.99165943454281],[-81.04995397147175,33.99159970374079],[-81.04987392561911,33.99150844826741],[-81.04979788205911,33.991491856353036],[-81.04974184996185,33.99146862766682],[-81.04969782474316,33.9914171926966],[-81.04969382245051,33.991387327215406],[-81.0496297857685,33.991355802529455],[-81.04961444086558,33.99130038451382],[-81.04957768860642,33.991250521024654],[-81.04951754854652,33.991181266128876],[-81.0493037172221,33.99070479091915],[-81.04919011933069,33.99041945855487],[-81.04911995592737,33.99032250073755],[-81.04905647475299,33.99013412523334],[-81.04897628800629,33.989951289785],[-81.04893619463316,33.98990419574284],[-81.04892617128976,33.9898238587856],[-81.04886937234433,33.98972135979976],[-81.04881591451284,33.989599468952804],[-81.04880811627753,33.98950619639635],[-81.04881479850646,33.98940092677235],[-81.04877470513333,33.989254103131344],[-81.04872458841632,33.98907403605611],[-81.04863771944116,33.98886349560712],[-81.04854750935104,33.98865572491495],[-81.04850407486296,33.98847288628659],[-81.04846792987644,33.98841621845423],[-81.04842449538887,33.98832756922161],[-81.0484311776178,33.98824446048124],[-81.04842449538887,33.98819182490449],[-81.04842115427441,33.98813918929429],[-81.04838106090078,33.98809209424786],[-81.04837771978632,33.98802837737763],[-81.04835099087107,33.987953579252434],[-81.04831089749747,33.98787601075597],[-81.04829085081116,33.98778459065217],[-81.04822068740783,33.98770148138165],[-81.0481739118053,33.987646075155595],[-81.04819395849212,33.98756850637926],[-81.04821734629338,33.98741890925274],[-81.04820398183551,33.98730809639693],[-81.04812713620325,33.98720559437665],[-81.04801298753291,33.98702788008647],[-81.0479962819606,33.98679240151064],[-81.04796621193039,33.986728683666826],[-81.04794282412963,33.986623410602235],[-81.04799962307507,33.98652644845379],[-81.0479862586172,33.98640455302427],[-81.048006305304,33.98616076164069],[-81.0480163286474,33.98601670276706],[-81.048006305304,33.98583939920249],[-81.04796287081592,33.98565101376066],[-81.04792873014951,33.9855596913704],[-81.04795545906475,33.98537961646724],[-81.04798552909496,33.98523278587868],[-81.0481459025884,33.98494743514148],[-81.04814256147394,33.984916960734125],[-81.04809244475693,33.984856011887445],[-81.048032304697,33.98480614461607],[-81.04784520228831,33.98472303243288],[-81.04776501554161,33.98467593549256],[-81.04772158105351,33.98454849658276],[-81.04770821659615,33.98442105748191],[-81.04771155771063,33.98425483228121],[-81.0477000210896,33.98396462780131],[-81.04776350226398,33.98376792688855],[-81.04777686672183,33.98365710927236],[-81.04778689006525,33.983454866749696],[-81.04778689006525,33.9831639691279],[-81.04782030120941,33.98305869164709],[-81.04780359563759,33.9829672663614],[-81.04781027786602,33.982911857049885],[-81.04778354895078,33.9827788745536],[-81.04783228898093,33.98268763201972],[-81.0478456534388,33.98259066538114],[-81.04788908792638,33.98250755103159],[-81.04793252241444,33.982410584187605],[-81.04793252241444,33.98224435505422],[-81.0479057934987,33.98220002723022],[-81.04781558340859,33.98226928944507],[-81.04780221895123,33.98242997756458],[-81.04782226563752,33.98254079678151],[-81.0478456534388,33.98257404251757],[-81.04791247572764,33.98247984623009],[-81.04793920464338,33.982302535288156],[-81.04790913461318,33.982177863310355],[-81.04799934470329,33.982122453483356],[-81.04802607361903,33.98202548620006],[-81.04795925132969,33.98193960079885],[-81.0479057934987,33.981864797315026],[-81.04789577015529,33.98179830527425],[-81.0479291813,33.9817124196435],[-81.04799266247436,33.981676403063744],[-81.04795556894526,33.9814166665017],[-81.047947326035,33.98124236931173],[-81.0479184758491,33.9811398413859],[-81.04784428965746,33.98105440135329],[-81.04780307510622,33.98092111473123],[-81.04782780383698,33.980798080740826],[-81.04783604674721,33.98065454086013],[-81.04780719656135,33.98055542984845],[-81.0477494961902,33.98047340685491],[-81.04776598201072,33.980333284058105],[-81.04777010346584,33.9800598730573],[-81.04775361764536,33.97999152016983],[-81.0477000387287,33.979844561275556],[-81.04768767436333,33.97962924894851],[-81.04771652454919,33.979564313377765],[-81.04771652454919,33.97945153042619],[-81.04766706708831,33.97931482361797],[-81.04769518970177,33.979161436179965],[-81.0475674245941,33.978942704434786],[-81.04755918168385,33.978607770359034],[-81.04749323840184,33.97838561947907],[-81.04752621004286,33.978272834963704],[-81.04741080929996,33.97809511360629],[-81.04744722688271,33.978005873435905],[-81.04755850616984,33.977985367079825],[-81.04760796363136,33.97788967068705],[-81.04761620654162,33.97767435340823],[-81.04769451418836,33.97759574537754],[-81.04769451418836,33.977482959814296],[-81.04763269236213,33.977404351606154],[-81.0475461418051,33.97733257883091],[-81.04746783415771,33.97726764150593],[-81.0474142552417,33.97717877982275],[-81.04740189087632,33.977062575942895],[-81.04741013378657,33.97690877644625],[-81.0474142552417,33.976778901099294]],"type":"LineString"},"id":2},{"type":"Feature","properties":{"stroke":"#f20707","stroke-width":5,"stroke-opacity":1},"geometry":{"coordinates":[[-81.06019189661393,33.99686783333428],[-81.06023575360992,33.99683788943882],[-81.06027703078264,33.9968271951885],[-81.06030282901479,33.996807945533405],[-81.06027961060592,33.99677372391356],[-81.06020221590711,33.99676302965452],[-81.06015577908857,33.99675661309847],[-81.06011450191588,33.99673308572275],[-81.06003710721782,33.99672453031154],[-81.05992875464025,33.99677586276522],[-81.05862336406189,33.99742607116397],[-81.0583860203204,33.9975501235171],[-81.05812029852264,33.99761214962537],[-81.05806695618861,33.99769265714042],[-81.05786830979575,33.997767516105526],[-81.05762322658512,33.99775468314465],[-81.05760258799876,33.9977995984992],[-81.0575793695891,33.997893706783515],[-81.05755357135618,33.99790226207696],[-81.05750971436018,33.99785948560107],[-81.05746327754166,33.997816709104214],[-81.05740910125247,33.99779318202144],[-81.05736782408056,33.99778890436933],[-81.05735750478738,33.99781884792961],[-81.05738588284362,33.997868040897984],[-81.05741942054564,33.997910817369586],[-81.05741942054564,33.9979450385307],[-81.05742458019223,33.99797925967874],[-81.05745037842517,33.99802203609434],[-81.05748649595131,33.998073367763965],[-81.05753551259312,33.99811614413221],[-81.0575922687056,33.99819741917186]],"type":"LineString"},"id":3},{"type":"Feature","properties":{"stroke":"#f20707","stroke-width":5,"stroke-opacity":1},"geometry":{"coordinates":[[-81.05761101263589,33.99776562334543],[-81.057543937231,33.9976586819439],[-81.0574536434157,33.997543185078925],[-81.05733497154495,33.9973998831954],[-81.05723435843724,33.997286524817355],[-81.05709246815685,33.99728224713975],[-81.05703571204515,33.99733785693209],[-81.05694025858405,33.99730363552574],[-81.0569144603511,33.99740416086709],[-81.05684738494624,33.997416993880876],[-81.0567674104241,33.997416993880876],[-81.05667195696299,33.99738063367002],[-81.05661262102801,33.9972544422299],[-81.05654038597577,33.99711969523152],[-81.05642687375159,33.99697639263299],[-81.05626176506233,33.99687586678546],[-81.05607601778593,33.99681811784079],[-81.05601152220434,33.996788173927754],[-81.0559341275055,33.9967304249235],[-81.05590316962676,33.99666412046268],[-81.05572516182022,33.99659567709334],[-81.05562050155999,33.99649903646254],[-81.05553536739207,33.996507591896446],[-81.05547603145709,33.99649689760393],[-81.05544765340085,33.99647337015564],[-81.05515613337015,33.99639851005011],[-81.05490331068964,33.99624023418133],[-81.05458599242601,33.99609479123056],[-81.05426951582864,33.99595522369381],[-81.05386190375127,33.99579053037013],[-81.05372259329415,33.99571780854123],[-81.05333819962564,33.995508198215006],[-81.05321436810829,33.99547397607161],[-81.05312407429378,33.99543119837364],[-81.05295638578042,33.99540980951623],[-81.05287899108237,33.995375587333186],[-81.0528144955008,33.99527078181261],[-81.05274276505153,33.99510711897294]],"type":"LineString"},"id":4},{"type":"Feature","properties":{"stroke":"#24f708","stroke-width":5,"stroke-opacity":1},"geometry":{"coordinates":[[-81.05265831831937,33.99493698844604],[-81.05274151783343,33.99510602628207]],"type":"LineString"},"id":5}]}